QIANFAN-57              
1 62787U 25016C   25198.54716555  .00000138  00000+0  19551-3 0  9992
2 62787  88.9867 118.4646 0017364  59.3760 300.9101 13.50957958 27194
QIANFAN-58              
1 62788U 25016D   25198.59245074  .00000136  00000+0  19248-3 0  9992
2 62788  88.9837 118.3378 0016141  54.8358 305.4303 13.50951467 27247
QIANFAN-59              
1 62789U 25016E   25198.53083370  .00000122  00000+0  17019-3 0  9995
2 62789  88.9861 118.3794 0017088  57.6642 302.6161 13.50955844 27238
QIANFAN-60              
1 62790U 25016F   25198.59655120  .00000132  00000+0  18511-3 0  9990
2 62790  88.9842 118.3804 0017528  55.4027 304.8775 13.50964201 27224
QIANFAN-61              
1 62791U 25016G   25198.53493627  .00000116  00000+0  16056-3 0  9991
2 62791  88.9910 118.4436 0016950  54.5894 305.6837 13.50953754 27233
QIANFAN-62              
1 62792U 25016H   25198.53886469  .00000125  00000+0  17538-3 0  9998
2 62792  88.9856 118.3919 0018351  54.6049 305.6813 13.50958855 27228
QIANFAN-63              
1 62793U 25016J   25198.55122674  .00000133  00000+0  18665-3 0  9993
2 62793  88.9862 118.3293 0018205  58.5935 301.6993 13.50958721 27267
QIANFAN-64              
1 62794U 25016K   25198.54300159  .00000132  00000+0  18594-3 0  9999
2 62794  88.9849 118.3301 0015970  53.4900 306.7719 13.50958451 27256
